"{\n    \"CCSDS_OMM_VERS\": \"2.0\",\n    \"COMMENT\": \"GENERATED VIA SPACE-TRACK.ORG API\",\n    \"CREATION_DATE\": \"2025-08-31T17:37:22\",\n    \"ORIGINATOR\": \"18 SPCS\",\n    \"OBJECT_NAME\": \"BEIDOU 10\",\n    \"OBJECT_ID\": \"2011-073A\",\n    \"CENTER_NAME\": \"EARTH\",\n    \"REF_FRAME\": \"TEME\",\n    \"TIME_SYSTEM\": \"UTC\",\n    \"MEAN_ELEMENT_THEORY\": \"SGP4\",\n    \"EPOCH\": \"2025-08-31T13:04:41.734272\",\n    \"MEAN_MOTION\": \"1.0027074365\",\n    \"ECCENTRICITY\": \"0.011033607\",\n    \"INCLINATION\": \"48.207356\",\n    \"RA_OF_ASC_NODE\": \"275.12731\",\n    \"ARG_OF_PERICENTER\": \"221.46112\",\n    \"MEAN_ANOMALY\": \"135.67811\",\n    \"EPHEMERIS_TYPE\": \"0\",\n    \"CLASSIFICATION_TYPE\": \"U\",\n    \"NORAD_CAT_ID\": \"37948\",\n    \"ELEMENT_SET_NO\": \"999\",\n    \"REV_AT_EPOCH\": \"5022\",\n    \"BSTAR\": \"0\",\n    \"MEAN_MOTION_DOT\": \"-0.000001094083\",\n    \"MEAN_MOTION_DDOT\": \"0\",\n    \"TLE_LINE0\": \"0 BEIDOU 10\",\n    \"TLE_LINE1\": \"1 37948U 11073A   25243.54492748 -.00000109  00000-0  00000-0 0  9993\",\n    \"TLE_LINE2\": \"2 37948  48.2074 275.1273 0110336 221.4611 135.6781  1.00270744 50221\",\n    \"SEMIMAJOR_AXIS\": \"42165.024\",\n    \"PERIOD\": \"1436.112\",\n    \"APOAPSIS\": \"36252.121\",\n    \"PERIAPSIS\": \"35321.657\",\n    \"OBJECT_TYPE\": \"PAYLOAD\",\n    \"DECAYED\": \"0\"\n}"